1 42928U 17051A   17265.07818287  .00256950 -22465-5  45087-3 0  9990
2 42928  19.1713  69.2122 3215792 273.5646  14.3617  9.18353099  1968
1 42928U 17051A   17265.41602832  .00256873 -22474-5  44499-3 0  9995
2 42928  19.1692  68.2742 3215235 275.2781  51.4070  9.18525170  2004
1 42928U 17051A   17265.92628090  .00255027 -22480-5  43701-3 0  9997
2 42928  19.1675  66.8736 3214231 277.8457 298.8717  9.18777990  2043
1 42928U 17051A   17266.40119485  .00250167 -22476-5  43456-3 0  9996
2 42928  19.1683  65.5378 3212797 280.3018  69.8451  9.19002397  2096
1 42928U 17051A   17266.90325344  .00248320 -22462-5  43725-3 0  9996
2 42928  19.1717  64.1457 3211269 282.8339 291.0778  9.19245705  2131
1 42928U 17051A   17267.15028935  .00246907 -22451-5  43314-3 0  9991
2 42928  19.1724  63.4478 3210778 284.1064  28.6222  9.19361875  2155
1 42928U 17051A   17267.48822829  .00245696 -22438-5  43141-3 0  9998
2 42928  19.1697  62.5121 3209945 285.8234  67.1968  9.19525021  2194
1 42928U 17051A   17267.62334814  .00245868 -22426-5  43286-3 0  9994
2 42928  19.1747  62.1321 3209552 286.5161 154.4993  9.19591671  2203
1 42928U 17051A   17267.88181407  .00245275 -22411-5  43079-3 0  9996
2 42928  19.1740  61.4194 3208989 287.8264 290.2131  9.19716318  2229
1 42928U 17051A   17268.46443602  .00244006 -22366-5  42903-3 0  9994
2 42928  19.1752  59.7973 3207572 290.8019  59.5429  9.19996192  2288
1 42928U 17051A   17268.97087046  .00244279 -22320-5  42903-3 0  9998
2 42928  19.1752  58.3892 3206372 293.3813 297.0712  9.20242992  2323
1 42928U 17051A   17269.44028760  .00245110 -22265-5  43070-3 0  9998
2 42928  19.1802  57.0758 3205211 295.7836  52.3949  9.20474524  2375
1 42928U 17051A   17269.69409425  .00244829 -22234-5  43205-3 0  9998
2 42928  19.1813  56.3697 3204500 297.0781 173.4897  9.20597361  2399
1 42928U 17051A   17270.41655403  .00246425 -22137-5  43422-3 0  9996
2 42928  19.1831  54.3860 3202759 300.7345  48.3046  9.20955032  2468
